[{"OBJECT_NAME":"TWILIGHT-1 OBJECT AN","OBJECT_ID":"2026-004AN","EPOCH":"2026-03-09T22:58:32.651040","MEAN_MOTION":15.18552159,"ECCENTRICITY":0.00068209,"INCLINATION":97.4577,"RA_OF_ASC_NODE":69.4904,"ARG_OF_PERICENTER":347.243,"MEAN_ANOMALY":12.863,"EPHEMERIS_TYPE":0,"CLASSIFICATION_TYPE":"U","NORAD_CAT_ID":67399,"ELEMENT_SET_NO":999,"REV_AT_EPOCH":870,"BSTAR":0.00026786599,"MEAN_MOTION_DOT":5.469e-5,"MEAN_MOTION_DDOT":0},{"OBJECT_NAME":"CHUBUSAT-3","OBJECT_ID":"2016-012C","EPOCH":"2026-03-09T22:11:59.804736","MEAN_MOTION":15.17633969,"ECCENTRICITY":0.00091539,"INCLINATION":31.0042,"RA_OF_ASC_NODE":259.576,"ARG_OF_PERICENTER":133.2555,"MEAN_ANOMALY":226.885,"EPHEMERIS_TYPE":0,"CLASSIFICATION_TYPE":"U","NORAD_CAT_ID":41339,"ELEMENT_SET_NO":999,"REV_AT_EPOCH":55310,"BSTAR":0.00036072373,"MEAN_MOTION_DOT":7.561e-5,"MEAN_MOTION_DDOT":0}]
